[{"OBJECT_NAME":"GPS BIIR-2  (PRN 13)","OBJECT_ID":"1997-035A","EPOCH":"2026-04-27T08:18:51.112224","MEAN_MOTION":2.00563834,"ECCENTRICITY":0.0099973,"INCLINATION":55.9682,"RA_OF_ASC_NODE":100.5615,"ARG_OF_PERICENTER":56.2118,"MEAN_ANOMALY":304.7322,"EPHEMERIS_TYPE":0,"CLASSIFICATION_TYPE":"U","NORAD_CAT_ID":24876,"ELEMENT_SET_NO":999,"REV_AT_EPOCH":21093,"BSTAR":0,"MEAN_MOTION_DOT":4.8e-7,"MEAN_MOTION_DDOT":0},{"OBJECT_NAME":"GPS BIIR-5  (PRN 22)","OBJECT_ID":"2000-040A","EPOCH":"2026-04-27T10:40:02.043840","MEAN_MOTION":2.00557238,"ECCENTRICITY":0.0121558,"INCLINATION":54.8614,"RA_OF_ASC_NODE":217.1773,"ARG_OF_PERICENTER":302.3581,"MEAN_ANOMALY":63.6187,"EPHEMERIS_TYPE":0,"CLASSIFICATION_TYPE":"U","NORAD_CAT_ID":26407,"ELEMENT_SET_NO":999,"REV_AT_EPOCH":18893,"BSTAR":0,"MEAN_MOTION_DOT":-4.4e-7,"MEAN_MOTION_DDOT":0},{"OBJECT_NAME":"GPS BIIR-8  (PRN 16)","OBJECT_ID":"2003-005A","EPOCH":"2026-04-27T06:20:28.817088","MEAN_MOTION":2.00563298,"ECCENTRICITY":0.0148189,"INCLINATION":54.8924,"RA_OF_ASC_NODE":216.9917,"ARG_OF_PERICENTER":52.9628,"MEAN_ANOMALY":318.0481,"EPHEMERIS_TYPE":0,"CLASSIFICATION_TYPE":"U","NORAD_CAT_ID":27663,"ELEMENT_SET_NO":999,"REV_AT_EPOCH":17029,"BSTAR":0,"MEAN_MOTION_DOT":-4.5e-7,"MEAN_MOTION_DDOT":0},{"OBJECT_NAME":"GPS BIIR-11 (PRN 19)","OBJECT_ID":"2004-009A","EPOCH":"2026-04-26T12:55:48.508896","MEAN_MOTION":2.00556343,"ECCENTRICITY":0.01136838,"INCLINATION":54.8736,"RA_OF_ASC_NODE":277.7725,"ARG_OF_PERICENTER":170.8393,"MEAN_ANOMALY":190.7377,"EPHEMERIS_TYPE":0,"CLASSIFICATION_TYPE":"U","NORAD_CAT_ID":28190,"ELEMENT_SET_NO":999,"REV_AT_EPOCH":16191,"BSTAR":0,"MEAN_MOTION_DOT":-4.9e-7,"MEAN_MOTION_DDOT":0},{"OBJECT_NAME":"GPS BIIR-13 (PRN 02)","OBJECT_ID":"2004-045A","EPOCH":"2026-04-27T04:47:06.758592","MEAN_MOTION":2.00553547,"ECCENTRICITY":0.01700763,"INCLINATION":55.1651,"RA_OF_ASC_NODE":326.9497,"ARG_OF_PERICENTER":315.0111,"MEAN_ANOMALY":228.8065,"EPHEMERIS_TYPE":0,"CLASSIFICATION_TYPE":"U","NORAD_CAT_ID":28474,"ELEMENT_SET_NO":999,"REV_AT_EPOCH":15740,"BSTAR":0,"MEAN_MOTION_DOT":-7.6e-7,"MEAN_MOTION_DDOT":0},{"OBJECT_NAME":"GPS BIIRM-1 (PRN 17)","OBJECT_ID":"2005-038A","EPOCH":"2026-04-27T11:47:24.957312","MEAN_MOTION":2.00569188,"ECCENTRICITY":0.012778,"INCLINATION":54.9208,"RA_OF_ASC_NODE":275.2219,"ARG_OF_PERICENTER":295.8558,"MEAN_ANOMALY":59.9369,"EPHEMERIS_TYPE":0,"CLASSIFICATION_TYPE":"U","NORAD_CAT_ID":28874,"ELEMENT_SET_NO":999,"REV_AT_EPOCH":15081,"BSTAR":0,"MEAN_MOTION_DOT":-5.8e-7,"MEAN_MOTION_DDOT":0},{"OBJECT_NAME":"GPS BIIRM-2 (PRN 31)","OBJECT_ID":"2006-042A","EPOCH":"2026-04-27T02:45:33.003648","MEAN_MOTION":2.00572699,"ECCENTRICITY":0.01061388,"INCLINATION":54.7027,"RA_OF_ASC_NODE":153.3668,"ARG_OF_PERICENTER":53.4661,"MEAN_ANOMALY":288.2938,"EPHEMERIS_TYPE":0,"CLASSIFICATION_TYPE":"U","NORAD_CAT_ID":29486,"ELEMENT_SET_NO":999,"REV_AT_EPOCH":14336,"BSTAR":0,"MEAN_MOTION_DOT":6.5e-7,"MEAN_MOTION_DDOT":0},{"OBJECT_NAME":"GPS BIIRM-3 (PRN 12)","OBJECT_ID":"2006-052A","EPOCH":"2026-04-24T13:40:50.622240","MEAN_MOTION":2.00555028,"ECCENTRICITY":0.00864806,"INCLINATION":54.9441,"RA_OF_ASC_NODE":216.131,"ARG_OF_PERICENTER":90.248,"MEAN_ANOMALY":270.7556,"EPHEMERIS_TYPE":0,"CLASSIFICATION_TYPE":"U","NORAD_CAT_ID":29601,"ELEMENT_SET_NO":999,"REV_AT_EPOCH":14233,"BSTAR":0,"MEAN_MOTION_DOT":-3.8e-7,"MEAN_MOTION_DDOT":0},{"OBJECT_NAME":"GPS BIIRM-4 (PRN 15)","OBJECT_ID":"2007-047A","EPOCH":"2026-04-26T20:52:01.035552","MEAN_MOTION":2.00557863,"ECCENTRICITY":0.01647872,"INCLINATION":54.0586,"RA_OF_ASC_NODE":82.1794,"ARG_OF_PERICENTER":86.5004,"MEAN_ANOMALY":275.3611,"EPHEMERIS_TYPE":0,"CLASSIFICATION_TYPE":"U","NORAD_CAT_ID":32260,"ELEMENT_SET_NO":999,"REV_AT_EPOCH":13578,"BSTAR":0,"MEAN_MOTION_DOT":3.0e-8,"MEAN_MOTION_DDOT":0},{"OBJECT_NAME":"GPS BIIRM-5 (PRN 29)","OBJECT_ID":"2007-062A","EPOCH":"2026-04-26T22:23:29.027040","MEAN_MOTION":2.00556888,"ECCENTRICITY":0.0034581,"INCLINATION":55.0742,"RA_OF_ASC_NODE":276.2115,"ARG_OF_PERICENTER":162.4186,"MEAN_ANOMALY":10.5045,"EPHEMERIS_TYPE":0,"CLASSIFICATION_TYPE":"U","NORAD_CAT_ID":32384,"ELEMENT_SET_NO":999,"REV_AT_EPOCH":13448,"BSTAR":0,"MEAN_MOTION_DOT":-5.2e-7,"MEAN_MOTION_DDOT":0},{"OBJECT_NAME":"GPS BIIRM-6 (PRN 07)","OBJECT_ID":"2008-012A","EPOCH":"2026-04-27T06:48:11.268864","MEAN_MOTION":2.00571022,"ECCENTRICITY":0.0209749,"INCLINATION":54.4885,"RA_OF_ASC_NODE":151.9586,"ARG_OF_PERICENTER":247.1216,"MEAN_ANOMALY":110.7185,"EPHEMERIS_TYPE":0,"CLASSIFICATION_TYPE":"U","NORAD_CAT_ID":32711,"ELEMENT_SET_NO":999,"REV_AT_EPOCH":13273,"BSTAR":0,"MEAN_MOTION_DOT":6.8e-7,"MEAN_MOTION_DDOT":0},{"OBJECT_NAME":"GPS BIIRM-8 (PRN 05)","OBJECT_ID":"2009-043A","EPOCH":"2026-04-26T18:43:36.967008","MEAN_MOTION":2.00557087,"ECCENTRICITY":0.00529813,"INCLINATION":56.1799,"RA_OF_ASC_NODE":29.4711,"ARG_OF_PERICENTER":81.373,"MEAN_ANOMALY":288.581,"EPHEMERIS_TYPE":0,"CLASSIFICATION_TYPE":"U","NORAD_CAT_ID":35752,"ELEMENT_SET_NO":999,"REV_AT_EPOCH":12233,"BSTAR":0,"MEAN_MOTION_DOT":-1.06e-6,"MEAN_MOTION_DDOT":0},{"OBJECT_NAME":"GPS BIIF-1  (PRN 25)","OBJECT_ID":"2010-022A","EPOCH":"2026-04-26T08:30:38.793024","MEAN_MOTION":2.00559819,"ECCENTRICITY":0.0126616,"INCLINATION":54.2771,"RA_OF_ASC_NODE":210.6498,"ARG_OF_PERICENTER":66.0747,"MEAN_ANOMALY":113.7256,"EPHEMERIS_TYPE":0,"CLASSIFICATION_TYPE":"U","NORAD_CAT_ID":36585,"ELEMENT_SET_NO":999,"REV_AT_EPOCH":11655,"BSTAR":0,"MEAN_MOTION_DOT":-4.2e-7,"MEAN_MOTION_DDOT":0},{"OBJECT_NAME":"GPS BIIF-3  (PRN 24)","OBJECT_ID":"2012-053A","EPOCH":"2026-04-23T23:20:21.228288","MEAN_MOTION":2.00566553,"ECCENTRICITY":0.0177937,"INCLINATION":53.5743,"RA_OF_ASC_NODE":145.8203,"ARG_OF_PERICENTER":65.1328,"MEAN_ANOMALY":296.7656,"EPHEMERIS_TYPE":0,"CLASSIFICATION_TYPE":"U","NORAD_CAT_ID":38833,"ELEMENT_SET_NO":999,"REV_AT_EPOCH":9835,"BSTAR":0,"MEAN_MOTION_DOT":4.0e-7,"MEAN_MOTION_DDOT":0},{"OBJECT_NAME":"GPS BIIF-4  (PRN 27)","OBJECT_ID":"2013-023A","EPOCH":"2026-04-26T07:56:33.762048","MEAN_MOTION":2.00563766,"ECCENTRICITY":0.014189,"INCLINATION":54.5462,"RA_OF_ASC_NODE":271.0846,"ARG_OF_PERICENTER":50.6724,"MEAN_ANOMALY":310.5447,"EPHEMERIS_TYPE":0,"CLASSIFICATION_TYPE":"U","NORAD_CAT_ID":39166,"ELEMENT_SET_NO":999,"REV_AT_EPOCH":9484,"BSTAR":0,"MEAN_MOTION_DOT":-4.8e-7,"MEAN_MOTION_DDOT":0},{"OBJECT_NAME":"GPS BIIF-5  (PRN 30)","OBJECT_ID":"2014-008A","EPOCH":"2026-04-26T19:55:34.046688","MEAN_MOTION":2.00556494,"ECCENTRICITY":0.00838058,"INCLINATION":53.6447,"RA_OF_ASC_NODE":151.4146,"ARG_OF_PERICENTER":230.1392,"MEAN_ANOMALY":129.1882,"EPHEMERIS_TYPE":0,"CLASSIFICATION_TYPE":"U","NORAD_CAT_ID":39533,"ELEMENT_SET_NO":999,"REV_AT_EPOCH":8865,"BSTAR":0,"MEAN_MOTION_DOT":6.2e-7,"MEAN_MOTION_DDOT":0},{"OBJECT_NAME":"GPS BIIF-6  (PRN 06)","OBJECT_ID":"2014-026A","EPOCH":"2026-04-27T02:32:44.421216","MEAN_MOTION":2.00564781,"ECCENTRICITY":0.0038926,"INCLINATION":56.5216,"RA_OF_ASC_NODE":333.5063,"ARG_OF_PERICENTER":326.6984,"MEAN_ANOMALY":33.095,"EPHEMERIS_TYPE":0,"CLASSIFICATION_TYPE":"U","NORAD_CAT_ID":39741,"ELEMENT_SET_NO":999,"REV_AT_EPOCH":8751,"BSTAR":0,"MEAN_MOTION_DOT":-7.9e-7,"MEAN_MOTION_DDOT":0}]
